{
  "type": "FeatureCollection",
  "features": [
    {
      "type": "Feature",
      "properties": {
        "norad_id": 29760,
        "name": "FENGYUN 1C DEB",
        "group": "fengyun-1c-debris",
        "lat": -46.978601930151484,
        "lon": 161.53477514756722,
        "alt_km": 824.0232520789177,
        "timestamp": "2025-12-14T22:38:41.029051+00:00",
        "meta_object_name": "FENGYUN 1C DEB",
        "meta_object_id": "1999-025BA",
        "meta_epoch": "2025-12-13T23:24:27.538272",
        "meta_mean_motion": 14.08289426,
        "meta_eccentricity": 0.01308725,
        "meta_inclination": 98.7622,
        "meta_ra_of_asc_node": 350.1071,
        "meta_arg_of_pericenter": 170.0878,
        "meta_mean_anomaly": 190.292,
        "meta_ephemeris_type": 0,
        "meta_classification_type": "U",
        "meta_norad_cat_id": 29760,
        "meta_element_set_no": 999,
        "meta_rev_at_epoch": 97110,
        "meta_bstar": 0.00011960457,
        "meta_mean_motion_dot": 1.79e-06,
        "meta_mean_motion_ddot": 0,
        "tle_line1": "1 29760U 99025BA  25347.97531873  .00000179  00000+0  11960-3 0  9999",
        "tle_line2": "2 29760  98.7622 350.1071 0130872 170.0878 190.2920 14.08289426971104"
      },
      "geometry": {
        "type": "Point",
        "coordinates": [
          161.53477514756722,
          -46.978601930151484
        ]
      }
    },
    {
      "type": "Feature",
      "properties": {
        "norad_id": 29762,
        "name": "FENGYUN 1C DEB",
        "group": "fengyun-1c-debris",
        "lat": -54.53534546680949,
        "lon": -16.08626879568055,
        "alt_km": 689.690919580732,
        "timestamp": "2025-12-14T22:38:41.029062+00:00",
        "meta_object_name": "FENGYUN 1C DEB",
        "meta_object_id": "1999-025BC",
        "meta_epoch": "2025-12-13T21:51:07.135200",
        "meta_mean_motion": 14.22585756,
        "meta_eccentricity": 0.02039295,
        "meta_inclination": 98.5795,
        "meta_ra_of_asc_node": 330.6721,
        "meta_arg_of_pericenter": 332.2403,
        "meta_mean_anomaly": 85.8607,
        "meta_ephemeris_type": 0,
        "meta_classification_type": "U",
        "meta_norad_cat_id": 29762,
        "meta_element_set_no": 999,
        "meta_rev_at_epoch": 97965,
        "meta_bstar": 0.00055273943,
        "meta_mean_motion_dot": 1.481e-05,
        "meta_mean_motion_ddot": 0,
        "tle_line1": "1 29762U 99025BC  25347.91049925  .00001481  00000+0  55274-3 0  9990",
        "tle_line2": "2 29762  98.5795 330.6721 0203929 332.2403  85.8607 14.22585756979650"
      },
      "geometry": {
        "type": "Point",
        "coordinates": [
          -16.08626879568055,
          -54.53534546680949
        ]
      }
    },
    {
      "type": "Feature",
      "properties": {
        "norad_id": 29763,
        "name": "FENGYUN 1C DEB",
        "group": "fengyun-1c-debris",
        "lat": 51.95134626265362,
        "lon": -43.077777586517186,
        "alt_km": 908.9904541831957,
        "timestamp": "2025-12-14T22:38:41.029072+00:00",
        "meta_object_name": "FENGYUN 1C DEB",
        "meta_object_id": "1999-025BD",
        "meta_epoch": "2025-12-13T22:49:38.326656",
        "meta_mean_motion": 14.0787801,
        "meta_eccentricity": 0.01274221,
        "meta_inclination": 98.7611,
        "meta_ra_of_asc_node": 327.3227,
        "meta_arg_of_pericenter": 177.0765,
        "meta_mean_anomaly": 250.06,
        "meta_ephemeris_type": 0,
        "meta_classification_type": "U",
        "meta_norad_cat_id": 29763,
        "meta_element_set_no": 999,
        "meta_rev_at_epoch": 97067,
        "meta_bstar": 0.00028917541,
        "meta_mean_motion_dot": 4.86e-06,
        "meta_mean_motion_ddot": 0,
        "tle_line1": "1 29763U 99025BD  25347.95113804  .00000486  00000+0  28918-3 0  9992",
        "tle_line2": "2 29763  98.7611 327.3227 0127422 177.0765 250.0600 14.07878010970676"
      },
      "geometry": {
        "type": "Point",
        "coordinates": [
          -43.077777586517186,
          51.95134626265362
        ]
      }
    },
    {
      "type": "Feature",
      "properties": {
        "norad_id": 29765,
        "name": "FENGYUN 1C DEB",
        "group": "fengyun-1c-debris",
        "lat": -69.98094859834008,
        "lon": 161.80420907921496,
        "alt_km": 935.7603109424081,
        "timestamp": "2025-12-14T22:38:41.029083+00:00",
        "meta_object_name": "FENGYUN 1C DEB",
        "meta_object_id": "1999-025BF",
        "meta_epoch": "2025-12-14T07:49:40.701792",
        "meta_mean_motion": 14.02153355,
        "meta_eccentricity": 0.00599831,
        "meta_inclination": 98.8306,
        "meta_ra_of_asc_node": 6.462,
        "meta_arg_of_pericenter": 88.2105,
        "meta_mean_anomaly": 288.9562,
        "meta_ephemeris_type": 0,
        "meta_classification_type": "U",
        "meta_norad_cat_id": 29765,
        "meta_element_set_no": 999,
        "meta_rev_at_epoch": 96773,
        "meta_bstar": 3.0239683e-05,
        "meta_mean_motion_dot": 5e-08,
        "meta_mean_motion_ddot": 0,
        "tle_line1": "1 29765U 99025BF  25348.32616553  .00000005  00000+0  30240-4 0  9994",
        "tle_line2": "2 29765  98.8306   6.4620 0059983  88.2105 288.9562 14.02153355967732"
      },
      "geometry": {
        "type": "Point",
        "coordinates": [
          161.80420907921496,
          -69.98094859834008
        ]
      }
    },
    {
      "type": "Feature",
      "properties": {
        "norad_id": 29766,
        "name": "FENGYUN 1C DEB",
        "group": "fengyun-1c-debris",
        "lat": 2.265923196871693,
        "lon": -61.89308939060194,
        "alt_km": 887.0268873536734,
        "timestamp": "2025-12-14T22:38:41.029093+00:00",
        "meta_object_name": "FENGYUN 1C DEB",
        "meta_object_id": "1999-025BG",
        "meta_epoch": "2025-12-14T07:54:55.649664",
        "meta_mean_motion": 13.97060986,
        "meta_eccentricity": 0.0145947,
        "meta_inclination": 98.6852,
        "meta_ra_of_asc_node": 297.8734,
        "meta_arg_of_pericenter": 283.8784,
        "meta_mean_anomaly": 231.9314,
        "meta_ephemeris_type": 0,
        "meta_classification_type": "U",
        "meta_norad_cat_id": 29766,
        "meta_element_set_no": 999,
        "meta_rev_at_epoch": 95826,
        "meta_bstar": 0.0017347593,
        "meta_mean_motion_dot": 2.608e-05,
        "meta_mean_motion_ddot": 0,
        "tle_line1": "1 29766U 99025BG  25348.32981076  .00002608  00000+0  17348-2 0  9993",
        "tle_line2": "2 29766  98.6852 297.8734 0145947 283.8784 231.9314 13.97060986958262"
      },
      "geometry": {
        "type": "Point",
        "coordinates": [
          -61.89308939060194,
          2.265923196871693
        ]
      }
    },
    {
      "type": "Feature",
      "properties": {
        "norad_id": 29767,
        "name": "FENGYUN 1C DEB",
        "group": "fengyun-1c-debris",
        "lat": -61.11239169602571,
        "lon": -27.427598277404982,
        "alt_km": 993.195471326485,
        "timestamp": "2025-12-14T22:38:41.029103+00:00",
        "meta_object_name": "FENGYUN 1C DEB",
        "meta_object_id": "1999-025BH",
        "meta_epoch": "2025-12-14T04:11:05.198208",
        "meta_mean_motion": 14.03361395,
        "meta_eccentricity": 0.03332886,
        "meta_inclination": 98.1979,
        "meta_ra_of_asc_node": 316.732,
        "meta_arg_of_pericenter": 57.1838,
        "meta_mean_anomaly": 320.3891,
        "meta_ephemeris_type": 0,
        "meta_classification_type": "U",
        "meta_norad_cat_id": 29767,
        "meta_element_set_no": 999,
        "meta_rev_at_epoch": 95620,
        "meta_bstar": 0.0023489833,
        "meta_mean_motion_dot": 5.978e-05,
        "meta_mean_motion_ddot": 0,
        "tle_line1": "1 29767U 99025BH  25348.17436572  .00005978  00000+0  23490-2 0  9991",
        "tle_line2": "2 29767  98.1979 316.7320 0333288  57.1838 320.3891 14.03361395956200"
      },
      "geometry": {
        "type": "Point",
        "coordinates": [
          -27.427598277404982,
          -61.11239169602571
        ]
      }
    },
    {
      "type": "Feature",
      "properties": {
        "norad_id": 29769,
        "name": "FENGYUN 1C DEB",
        "group": "fengyun-1c-debris",
        "lat": 71.30758812181476,
        "lon": 17.969850632921037,
        "alt_km": 796.9486094974982,
        "timestamp": "2025-12-14T22:38:41.029114+00:00",
        "meta_object_name": "FENGYUN 1C DEB",
        "meta_object_id": "1999-025BK",
        "meta_epoch": "2025-12-13T02:07:44.144832",
        "meta_mean_motion": 14.13533359,
        "meta_eccentricity": 0.00938493,
        "meta_inclination": 99.1047,
        "meta_ra_of_asc_node": 44.3746,
        "meta_arg_of_pericenter": 129.5062,
        "meta_mean_anomaly": 231.4454,
        "meta_ephemeris_type": 0,
        "meta_classification_type": "U",
        "meta_norad_cat_id": 29769,
        "meta_element_set_no": 999,
        "meta_rev_at_epoch": 96686,
        "meta_bstar": 0.0021856991,
        "meta_mean_motion_dot": 4.25e-05,
        "meta_mean_motion_ddot": 0,
        "tle_line1": "1 29769U 99025BK  25347.08870538  .00004250  00000+0  21857-2 0  9993",
        "tle_line2": "2 29769  99.1047  44.3746 0093849 129.5062 231.4454 14.13533359966866"
      },
      "geometry": {
        "type": "Point",
        "coordinates": [
          17.969850632921037,
          71.30758812181476
        ]
      }
    }
  ]
}